ONEWEB-0096
1 45439U 20020R   26164.85237293 -.00000318  00000+0 -93318-3 0  9997
2 45439  87.8898  21.7263 0001883  88.0148 272.1195 13.11421380302225
GSAT0226 (GALILEO 31)
1 61183U 24167B   26164.61722911  .00000062  00000+0  00000+0 0  9993
2 61183  55.1846 221.4192 0002934 226.2938 162.7706  1.70474135 10799
ASIASAT 9
1 42942U 17057A   26164.85322399  .00000000  00000+0  00000+0 0  9999
2 42942   0.0410  45.6399 0002498  28.1238 257.7082  1.00263846 31826
ONEWEB-0446
1 51640U 22012U   26164.88731412 -.00000239  00000+0 -72221-3 0  9998
2 51640  87.8832  36.9414 0001857  87.1230 273.0110 13.10369830208898
ONEWEB-0416
1 51625U 22012D   26164.89063967 -.00000332  00000+0 -98788-3 0  9995
2 51625  87.8830  36.9402 0002053  94.6605 265.4757 13.10370292208890
ONEWEB-0473
1 51653U 22012AH  26164.89395125 -.00000541  00000+0 -15854-2 0  9994
2 51653  87.8828  36.9323 0001803  78.4845 281.6485 13.10370623208872
ONEWEB-0449
1 51642U 22012W   26164.89727255 -.00000631  00000+0 -18448-2 0  9997
2 51642  87.8837  36.9214 0002170  75.3216 284.8152 13.10371334208871
ONEWEB-0557
1 56058U 23043N   26164.87764470  .00000015  00000+0  60649-5 0  9993
2 56058  87.9101 229.4387 0002867  74.5010 285.6437 13.16594244158522
GSAT0205 (GALILEO 9)
1 40889U 15045A   26144.30399159 -.00000014  00000+0  00000+0 0  9994
2 40889  54.9357 222.4171 0006405 263.0112  96.9692  1.67409242 66562
JCSAT-17
1 45245U 20013A   26164.93143235 -.00000309  00000+0  00000+0 0  9996
2 45245   5.3925 356.8380 0002345  84.0311 292.7088  1.00271388 23203
ONEWEB-0607
1 54671U 22166AF  26164.71982464  .00000074  00000+0  14675-3 0  9996
2 54671  87.9262 244.6600 0001959  94.6134 265.5224 13.21824129171088
ONEWEB-0559
1 56060U 23043Q   26164.95027051  .00000064  00000+0  12461-3 0  9993
2 56060  87.9257 244.6175 0001894 104.3949 255.7396 13.21827446157826
ONEWEB-0582
1 54649U 22166H   26164.72488850  .00000013  00000+0 -97880-6 0  9998
2 54649  87.9255 244.6629 0002216  87.6962 272.4426 13.21826383171067
ONEWEB-0608
1 54672U 22166AG  26164.72655739 -.00000009  00000+0 -54447-4 0  9992
2 54672  87.9264 244.6553 0002345  87.8271 272.3132 13.21827644171094
ONEWEB-0236
1 48797U 21045AG  26164.75325947 -.00000113  00000+0 -33384-3 0  9998
2 48797  87.9000 259.8908 0002120 102.4960 257.6407 13.15547714243805
ONEWEB-0246
1 48786U 21045V   26164.75484354 -.00000147  00000+0 -42571-3 0  9999
2 48786  87.9011 259.8707 0001878  97.8313 262.3031 13.15549004243822
ONEWEB-0215
1 48800U 21045AK  26164.75799340 -.00000135  00000+0 -39379-3 0  9999
2 48800  87.9011 259.8634 0001412 114.9244 245.2034 13.15546264243846
ONEWEB-0240
1 48785U 21045U   26164.76037998 -.00000105  00000+0 -31385-3 0  9992
2 48785  87.9012 259.8656 0001843 110.6035 249.5293 13.15547372243959
ONEWEB-0241
1 48773U 21045G   26164.76277122 -.00000176  00000+0 -50082-3 0  9997
2 48773  87.8998 259.8885 0001782 112.6106 247.5213 13.15548299243886
ONEWEB-0007
1 44060U 19010D   26164.76435135 -.00000100  00000+0 -30080-3 0  9994
2 44060  87.8999 259.9032 0001685  97.7626 262.3695 13.15547861350926
ONEWEB-0368
1 49294U 21090R   26164.80375993 -.00000005  00000+0 -43820-4 0  9990
2 49294  87.9184 275.1255 0001513  81.4837 278.6468 13.20769956230537
GSAT0233 (GALILEO 33)
1 67160U 25302A   26164.11671058 -.00000003  00000+0  00000+0 0  9992
2 67160  54.3316 102.2474 0000940 233.3005 305.0843  1.70473941  3050
INTELSAT 25 (IS-25)
1 33153U 08034A   26164.93143235 -.00000265  00000+0  00000+0 0  9991
2 33153   2.7012  80.4086 0003119  58.9452 234.3418  0.99036317 65657
